ION SCV-008             
1 55051U 23001AU  26068.82429008  .00008336  00000+0  31423-3 0  9992
2 55051  97.5676 163.6060 0015192   8.5420 351.6074 15.27226640176169
STARLINK-30930          
1 58385U 23178M   26068.21275338  .00002556  00000+0  98399-4 0  9992
2 58385  53.1624   2.9127 0001328 125.1056 235.0069 15.30204033129690
